[
    {
        "Altitude(m)": 607910.9885258339,
        "Argument of Periapsis(deg)": 0.0,
        "Eccentricity": 0.0,
        "Inclination(deg)": 60.0,
        "Latitude(deg)": -14.29282857562236,
        "Longitude(deg)": 108.44264654953346,
        "Mean Anomaly(deg)": 196.36359999999996,
        "RAAN(deg)": 20.0,
        "Satellite Name": "Test1 100",
        "Satellite Number": 100,
        "Semi-Major Axis(m)": 6980739.136638005,
        "Time(s)": 0
    },
    {
        "Altitude(m)": 608060.2214258554,
        "Argument of Periapsis(deg)": 0.00010418945913296404,
        "Eccentricity": 0.0,
        "Inclination(deg)": 60.0,
        "Latitude(deg)": -14.826490004838872,
        "Longitude(deg)": 108.73125579931242,
        "Mean Anomaly(deg)": 196.9837061454618,
        "RAAN(deg)": 19.99957995086026,
        "Satellite Name": "Test1 100",
        "Satellite Number": 100,
        "Semi-Major Axis(m)": 6980739.136638005,
        "Time(s)": 10
    }
]